HAWK-2A                 
1 47505U 21006CW  26068.67946547  .00008113  00000+0  25431-3 0  9990
2 47505  97.2459 115.6184 0006450 187.1463 172.9689 15.33304498284242
STARLINK-36121          
1 66940U 25286R   26068.20377004  .00017854  00000+0  61351-3 0  9996
2 66940  53.1624   0.6176 0001001 112.7165 247.3942 15.30198288 15342
